{
  "type": "FeatureCollection",
  "features": [
    {
      "type": "Feature",
      "properties": {
        "norad_id": 35606,
        "name": "COSMOS 2251 DEB",
        "group": "cosmos-2251-debris",
        "lat": -58.37949616377597,
        "lon": -35.21953538888281,
        "alt_km": 1159.1607463926357,
        "timestamp": "2025-12-23T22:42:33.382125+00:00",
        "meta_object_name": "COSMOS 2251 DEB",
        "meta_object_id": "1993-036AMZ",
        "meta_epoch": "2025-12-22T16:36:21.551904",
        "meta_mean_motion": 13.41219032,
        "meta_eccentricity": 0.04568187,
        "meta_inclination": 73.8097,
        "meta_ra_of_asc_node": 354.9331,
        "meta_arg_of_pericenter": 199.1781,
        "meta_mean_anomaly": 159.163,
        "meta_ephemeris_type": 0,
        "meta_classification_type": "U",
        "meta_norad_cat_id": 35606,
        "meta_element_set_no": 999,
        "meta_rev_at_epoch": 61173,
        "meta_bstar": 0.00021075659,
        "meta_mean_motion_dot": 1.94e-06,
        "meta_mean_motion_ddot": 0,
        "tle_line1": "1 35606U 93036AMZ 25356.69191611  .00000194  00000+0  21076-3 0  9998",
        "tle_line2": "2 35606  73.8097 354.9331 0456818 199.1781 159.1630 13.41219032611731"
      },
      "geometry": {
        "type": "Point",
        "coordinates": [
          -35.21953538888281,
          -58.37949616377597
        ]
      }
    },
    {
      "type": "Feature",
      "properties": {
        "norad_id": 35611,
        "name": "COSMOS 2251 DEB",
        "group": "cosmos-2251-debris",
        "lat": -30.446736686783773,
        "lon": 147.75473816487792,
        "alt_km": 659.1689567918138,
        "timestamp": "2025-12-23T22:42:33.382135+00:00",
        "meta_object_name": "COSMOS 2251 DEB",
        "meta_object_id": "1993-036ANE",
        "meta_epoch": "2025-12-19T11:16:40.848672",
        "meta_mean_motion": 14.73020971,
        "meta_eccentricity": 0.0021353,
        "meta_inclination": 74.0189,
        "meta_ra_of_asc_node": 166.1787,
        "meta_arg_of_pericenter": 238.9125,
        "meta_mean_anomaly": 120.9952,
        "meta_ephemeris_type": 0,
        "meta_classification_type": "U",
        "meta_norad_cat_id": 35611,
        "meta_element_set_no": 999,
        "meta_rev_at_epoch": 87389,
        "meta_bstar": 0.0015718,
        "meta_mean_motion_dot": 0.0001012,
        "meta_mean_motion_ddot": 0,
        "tle_line1": "1 35611U 93036ANE 25353.46991723  .00010120  00000+0  15718-2 0  9993",
        "tle_line2": "2 35611  74.0189 166.1787 0021353 238.9125 120.9952 14.73020971873894"
      },
      "geometry": {
        "type": "Point",
        "coordinates": [
          147.75473816487792,
          -30.446736686783773
        ]
      }
    },
    {
      "type": "Feature",
      "properties": {
        "norad_id": 35614,
        "name": "COSMOS 2251 DEB",
        "group": "cosmos-2251-debris",
        "lat": -28.310390555790004,
        "lon": 134.64761784931937,
        "alt_km": 643.0445489211425,
        "timestamp": "2025-12-23T22:42:33.382145+00:00",
        "meta_object_name": "COSMOS 2251 DEB",
        "meta_object_id": "1993-036ANH",
        "meta_epoch": "2025-12-22T04:50:52.701504",
        "meta_mean_motion": 14.67087782,
        "meta_eccentricity": 0.00751415,
        "meta_inclination": 73.9595,
        "meta_ra_of_asc_node": 309.1128,
        "meta_arg_of_pericenter": 161.1452,
        "meta_mean_anomaly": 199.2529,
        "meta_ephemeris_type": 0,
        "meta_classification_type": "U",
        "meta_norad_cat_id": 35614,
        "meta_element_set_no": 999,
        "meta_rev_at_epoch": 87868,
        "meta_bstar": 0.00075496675,
        "meta_mean_motion_dot": 4.392e-05,
        "meta_mean_motion_ddot": 0,
        "tle_line1": "1 35614U 93036ANH 25356.20199886  .00004392  00000+0  75497-3 0  9996",
        "tle_line2": "2 35614  73.9595 309.1128 0075141 161.1452 199.2529 14.67087782878685"
      },
      "geometry": {
        "type": "Point",
        "coordinates": [
          134.64761784931937,
          -28.310390555790004
        ]
      }
    },
    {
      "type": "Feature",
      "properties": {
        "norad_id": 35645,
        "name": "COSMOS 2251 DEB",
        "group": "cosmos-2251-debris",
        "lat": 33.20358658189293,
        "lon": -124.10631222682433,
        "alt_km": 726.3970987816738,
        "timestamp": "2025-12-23T22:42:33.382155+00:00",
        "meta_object_name": "COSMOS 2251 DEB",
        "meta_object_id": "1993-036ANL",
        "meta_epoch": "2025-12-21T21:52:19.623936",
        "meta_mean_motion": 14.45702684,
        "meta_eccentricity": 0.00697421,
        "meta_inclination": 73.9649,
        "meta_ra_of_asc_node": 70.5529,
        "meta_arg_of_pericenter": 227.2337,
        "meta_mean_anomaly": 132.2942,
        "meta_ephemeris_type": 0,
        "meta_classification_type": "U",
        "meta_norad_cat_id": 35645,
        "meta_element_set_no": 999,
        "meta_rev_at_epoch": 86904,
        "meta_bstar": 0.0018299247,
        "meta_mean_motion_dot": 6.654e-05,
        "meta_mean_motion_ddot": 0,
        "tle_line1": "1 35645U 93036ANL 25355.91133824  .00006654  00000+0  18299-2 0  9996",
        "tle_line2": "2 35645  73.9649  70.5529 0069742 227.2337 132.2942 14.45702684869046"
      },
      "geometry": {
        "type": "Point",
        "coordinates": [
          -124.10631222682433,
          33.20358658189293
        ]
      }
    },
    {
      "type": "Feature",
      "properties": {
        "norad_id": 35646,
        "name": "COSMOS 2251 DEB",
        "group": "cosmos-2251-debris",
        "lat": 13.984184985677109,
        "lon": -145.88454499207586,
        "alt_km": 781.9500148570351,
        "timestamp": "2025-12-23T22:42:33.382165+00:00",
        "meta_object_name": "COSMOS 2251 DEB",
        "meta_object_id": "1993-036ANM",
        "meta_epoch": "2025-12-22T19:39:20.278080",
        "meta_mean_motion": 13.40833248,
        "meta_eccentricity": 0.04560319,
        "meta_inclination": 73.8715,
        "meta_ra_of_asc_node": 40.0356,
        "meta_arg_of_pericenter": 148.5212,
        "meta_mean_anomaly": 335.9889,
        "meta_ephemeris_type": 0,
        "meta_classification_type": "U",
        "meta_norad_cat_id": 35646,
        "meta_element_set_no": 999,
        "meta_rev_at_epoch": 81993,
        "meta_bstar": 0.00038990225,
        "meta_mean_motion_dot": 3.77e-06,
        "meta_mean_motion_ddot": 0,
        "tle_line1": "1 35646U 93036ANM 25356.81898470  .00000377  00000+0  38990-3 0  9999",
        "tle_line2": "2 35646  73.8715  40.0356 0456031 148.5212 335.9889 13.40833248819938"
      },
      "geometry": {
        "type": "Point",
        "coordinates": [
          -145.88454499207586,
          13.984184985677109
        ]
      }
    },
    {
      "type": "Feature",
      "properties": {
        "norad_id": 35647,
        "name": "COSMOS 2251 DEB",
        "group": "cosmos-2251-debris",
        "lat": 41.0104178269383,
        "lon": 79.29496392556965,
        "alt_km": 762.2216138475751,
        "timestamp": "2025-12-23T22:42:33.382174+00:00",
        "meta_object_name": "COSMOS 2251 DEB",
        "meta_object_id": "1993-036ANN",
        "meta_epoch": "2025-12-20T12:35:18.566880",
        "meta_mean_motion": 14.43670529,
        "meta_eccentricity": 0.0045979,
        "meta_inclination": 74.0241,
        "meta_ra_of_asc_node": 280.0829,
        "meta_arg_of_pericenter": 17.3675,
        "meta_mean_anomaly": 342.9041,
        "meta_ephemeris_type": 0,
        "meta_classification_type": "U",
        "meta_norad_cat_id": 35647,
        "meta_element_set_no": 999,
        "meta_rev_at_epoch": 67776,
        "meta_bstar": 0.00050731,
        "meta_mean_motion_dot": 1.718e-05,
        "meta_mean_motion_ddot": 0,
        "tle_line1": "1 35647U 93036ANN 25354.52452045  .00001718  00000+0  50731-3 0  9997",
        "tle_line2": "2 35647  74.0241 280.0829 0045979  17.3675 342.9041 14.43670529677764"
      },
      "geometry": {
        "type": "Point",
        "coordinates": [
          79.29496392556965,
          41.0104178269383
        ]
      }
    },
    {
      "type": "Feature",
      "properties": {
        "norad_id": 35650,
        "name": "COSMOS 2251 DEB",
        "group": "cosmos-2251-debris",
        "lat": 52.31299111205449,
        "lon": 154.95064563071313,
        "alt_km": 611.0088473219294,
        "timestamp": "2025-12-23T22:42:33.382185+00:00",
        "meta_object_name": "COSMOS 2251 DEB",
        "meta_object_id": "1993-036ANR",
        "meta_epoch": "2025-12-21T00:43:00.521760",
        "meta_mean_motion": 14.83815616,
        "meta_eccentricity": 0.00149589,
        "meta_inclination": 74.045,
        "meta_ra_of_asc_node": 2.46,
        "meta_arg_of_pericenter": 46.0258,
        "meta_mean_anomaly": 346.2318,
        "meta_ephemeris_type": 0,
        "meta_classification_type": "U",
        "meta_norad_cat_id": 35650,
        "meta_element_set_no": 999,
        "meta_rev_at_epoch": 87757,
        "meta_bstar": 0.0010844283,
        "meta_mean_motion_dot": 8.984e-05,
        "meta_mean_motion_ddot": 0,
        "tle_line1": "1 35650U 93036ANR 25355.02986715  .00008984  00000+0  10844-2 0  9995",
        "tle_line2": "2 35650  74.0450   2.4600 0014958  46.0258 346.2318 14.83815616877579"
      },
      "geometry": {
        "type": "Point",
        "coordinates": [
          154.95064563071313,
          52.31299111205449
        ]
      }
    }
  ]
}